STARLINK-30126
1 56694U 23067G   26061.16668981  .01843256  00000+0  11822+0 0  9999
2 56694  43.0010 315.5821 0001823 282.8031 146.7820 15.04746638  5774
STARLINK-6324
1 57353U 23099AB  26061.16668981  .00057552  00000+0  39957-2 0  9994
2 57353  42.9994 289.3258 0000943 261.7650   3.6932 15.04769607  5768
